{"type": "FeatureCollection", "features": [ {"type": "Feature", "properties": {"norad_id": 30914, "name": "FENGYUN 1C DEB", "group": "fengyun-1c-debris", "lat": 39.16380575381429, "lon": 67.20340573871461, "alt_km": 1604.392753033224, "timestamp": "2025-12-21T14:40:48.196072+00:00", "meta": {"OBJECT_NAME": "FENGYUN 1C DEB", "OBJECT_ID": "1999-025AZC", "EPOCH": "2025-12-17T21:54:28.395360", "MEAN_MOTION": 13.08857758, "ECCENTRICITY": 0.05168492, "INCLINATION": 99.9831, "RA_OF_ASC_NODE": 235.491, "ARG_OF_PERICENTER": 342.6151, "MEAN_ANOMALY": 15.7825, "EPHEMERIS_TYPE": 0, "CLASSIFICATION_TYPE": "U", "NORAD_CAT_ID": 30914, "ELEMENT_SET_NO": 999, "REV_AT_EPOCH": 59143, "BSTAR": 0.0037805037, "MEAN_MOTION_DOT": 2.449e-05, "MEAN_MOTION_DDOT": 0}, "tle": {"line1": "1 30914U 99025AZC 25351.91282865  .00002449  00000+0  37805-2 0  9992", "line2": "2 30914  99.9831 235.4910 0516849 342.6151  15.7825 13.08857758591439"}}, "geometry": {"type": "Point", "coordinates": [67.20340573871461, 39.16380575381429]}}, {"type": "Feature", "properties": {"norad_id": 30915, "name": "FENGYUN 1C DEB", "group": "fengyun-1c-debris", "lat": -37.53596385254472, "lon": 78.9008868281354, "alt_km": 852.928092270352, "timestamp": "2025-12-21T14:40:48.196084+00:00", "meta": {"OBJECT_NAME": "FENGYUN 1C DEB", "OBJECT_ID": "1999-025AZD", "EPOCH": "2025-12-20T22:00:34.728768", "MEAN_MOTION": 14.25094079, "ECCENTRICITY": 0.0053477, "INCLINATION": 98.9418, "RA_OF_ASC_NODE": 71.2454, "ARG_OF_PERICENTER": 145.3903, "MEAN_ANOMALY": 215.0775, "EPHEMERIS_TYPE": 0, "CLASSIFICATION_TYPE": "U", "NORAD_CAT_ID": 30915, "ELEMENT_SET_NO": 999, "REV_AT_EPOCH": 96629, "BSTAR": 0.0010658, "MEAN_MOTION_DOT": 2.492e-05, "MEAN_MOTION_DDOT": 0}, "tle": {"line1": "1 30915U 99025AZD 25354.91706862  .00002492  00000+0  10658-2 0  9999", "line2": "2 30915  98.9418  71.2454 0053477 145.3903 215.0775 14.25094079966293"}}, "geometry": {"type": "Point", "coordinates": [78.9008868281354, -37.53596385254472]}}, {"type": "Feature", "properties": {"norad_id": 30916, "name": "FENGYUN 1C DEB", "group": "fengyun-1c-debris", "lat": -28.347447897057915, "lon": -128.96324813729706, "alt_km": 827.5883250193501, "timestamp": "2025-12-21T14:40:48.196094+00:00", "meta": {"OBJECT_NAME": "FENGYUN 1C DEB", "OBJECT_ID": "1999-025AZE", "EPOCH": "2025-12-21T03:44:22.566336", "MEAN_MOTION": 14.0882907, "ECCENTRICITY": 0.00630291, "INCLINATION": 99.0018, "RA_OF_ASC_NODE": 55.4877, "ARG_OF_PERICENTER": 234.5331, "MEAN_ANOMALY": 183.6856, "EPHEMERIS_TYPE": 0, "CLASSIFICATION_TYPE": "U", "NORAD_CAT_ID": 30916, "ELEMENT_SET_NO": 999, "REV_AT_EPOCH": 95962, "BSTAR": 0.00077332589, "MEAN_MOTION_DOT": 1.315e-05, "MEAN_MOTION_DDOT": 0}, "tle": {"line1": "1 30916U 99025AZE 25355.15581674  .00001315  00000+0  77333-3 0  9996", "line2": "2 30916  99.0018  55.4877 0063029 234.5331 183.6856 14.08829070959622"}}, "geometry": {"type": "Point", "coordinates": [-128.96324813729706, -28.347447897057915]}}, {"type": "Feature", "properties": {"norad_id": 30918, "name": "FENGYUN 1C DEB", "group": "fengyun-1c-debris", "lat": -81.5521432651523, "lon": -167.44260837009134, "alt_km": 1024.858417049135, "timestamp": "2025-12-21T14:40:48.196104+00:00", "meta": {"OBJECT_NAME": "FENGYUN 1C DEB", "OBJECT_ID": "1999-025AZG", "EPOCH": "2025-12-21T06:47:18.996864", "MEAN_MOTION": 13.96848052, "ECCENTRICITY": 0.01573405, "INCLINATION": 98.4168, "RA_OF_ASC_NODE": 106.7751, "ARG_OF_PERICENTER": 101.6588, "MEAN_ANOMALY": 316.1337, "EPHEMERIS_TYPE": 0, "CLASSIFICATION_TYPE": "U", "NORAD_CAT_ID": 30918, "ELEMENT_SET_NO": 999, "REV_AT_EPOCH": 95172, "BSTAR": 0.00068002838, "MEAN_MOTION_DOT": 1.013e-05, "MEAN_MOTION_DDOT": 0}, "tle": {"line1": "1 30918U 99025AZG 25355.28285876  .00001013  00000+0  68003-3 0  9996", "line2": "2 30918  98.4168 106.7751 0157340 101.6588 316.1337 13.96848052951729"}}, "geometry": {"type": "Point", "coordinates": [-167.44260837009134, -81.5521432651523]}}, {"type": "Feature", "properties": {"norad_id": 30920, "name": "FENGYUN 1C DEB", "group": "fengyun-1c-debris", "lat": 80.98488330751319, "lon": 55.17924977867486, "alt_km": 753.6107392182093, "timestamp": "2025-12-21T14:40:48.196114+00:00", "meta": {"OBJECT_NAME": "FENGYUN 1C DEB", "OBJECT_ID": "1999-025AZJ", "EPOCH": "2025-12-20T02:40:31.010592", "MEAN_MOTION": 14.16716763, "ECCENTRICITY": 0.01085324, "INCLINATION": 98.9177, "RA_OF_ASC_NODE": 135.4232, "ARG_OF_PERICENTER": 77.0528, "MEAN_ANOMALY": 284.2741, "EPHEMERIS_TYPE": 0, "CLASSIFICATION_TYPE": "U", "NORAD_CAT_ID": 30920, "ELEMENT_SET_NO": 999, "REV_AT_EPOCH": 95198, "BSTAR": 0.0020678221, "MEAN_MOTION_DOT": 4.337e-05, "MEAN_MOTION_DDOT": 0}, "tle": {"line1": "1 30920U 99025AZJ 25354.11147003  .00004337  00000+0  20678-2 0  9996", "line2": "2 30920  98.9177 135.4232 0108532  77.0528 284.2741 14.16716763951987"}}, "geometry": {"type": "Point", "coordinates": [55.17924977867486, 80.98488330751319]}}, {"type": "Feature", "properties": {"norad_id": 30921, "name": "FENGYUN 1C DEB", "group": "fengyun-1c-debris", "lat": 50.729383105866404, "lon": -85.75281906601317, "alt_km": 783.3685156527035, "timestamp": "2025-12-21T14:40:48.196127+00:00", "meta": {"OBJECT_NAME": "FENGYUN 1C DEB", "OBJECT_ID": "1999-025AZK", "EPOCH": "2025-12-21T05:59:27.197376", "MEAN_MOTION": 14.32802796, "ECCENTRICITY": 0.00164112, "INCLINATION": 98.8432, "RA_OF_ASC_NODE": 82.9015, "ARG_OF_PERICENTER": 10.3023, "MEAN_ANOMALY": 51.4643, "EPHEMERIS_TYPE": 0, "CLASSIFICATION_TYPE": "U", "NORAD_CAT_ID": 30921, "ELEMENT_SET_NO": 999, "REV_AT_EPOCH": 96946, "BSTAR": 0.0012526522, "MEAN_MOTION_DOT": 3.375e-05, "MEAN_MOTION_DDOT": 0}, "tle": {"line1": "1 30921U 99025AZK 25355.24962034  .00003375  00000+0  12527-2 0  9996", "line2": "2 30921  98.8432  82.9015 0016411  10.3023  51.4643 14.32802796969467"}}, "geometry": {"type": "Point", "coordinates": [-85.75281906601317, 50.729383105866404]}}, {"type": "Feature", "properties": {"norad_id": 30922, "name": "FENGYUN 1C DEB", "group": "fengyun-1c-debris", "lat": -53.87832654915075, "lon": 23.234767636182323, "alt_km": 839.7502301676786, "timestamp": "2025-12-21T14:40:48.196137+00:00", "meta": {"OBJECT_NAME": "FENGYUN 1C DEB", "OBJECT_ID": "1999-025AZL", "EPOCH": "2025-12-20T20:52:42.079008", "MEAN_MOTION": 14.17478399, "ECCENTRICITY": 0.0014265, "INCLINATION": 98.6395, "RA_OF_ASC_NODE": 10.4892, "ARG_OF_PERICENTER": 31.3143, "MEAN_ANOMALY": 91.2327, "EPHEMERIS_TYPE": 0, "CLASSIFICATION_TYPE": "U", "NORAD_CAT_ID": 30922, "ELEMENT_SET_NO": 999, "REV_AT_EPOCH": 96679, "BSTAR": 0.0004692, "MEAN_MOTION_DOT": 9.1e-06, "MEAN_MOTION_DDOT": 0}, "tle": {"line1": "1 30922U 99025AZL 25354.86993147  .00000910  00000+0  46920-3 0  9990", "line2": "2 30922  98.6395  10.4892 0014265  31.3143  91.2327 14.17478399966799"}}, "geometry": {"type": "Point", "coordinates": [23.234767636182323, -53.87832654915075]}}, {"type": "Feature", "properties": {"norad_id": 30925, "name": "FENGYUN 1C DEB", "group": "fengyun-1c-debris", "lat": 7.780564676263036, "lon": -51.005983398607256, "alt_km": 731.2450245370064, "timestamp": "2025-12-21T14:40:48.196147+00:00", "meta": {"OBJECT_NAME": "FENGYUN 1C DEB", "OBJECT_ID": "1999-025AZP", "EPOCH": "2025-12-21T03:02:28.225248", "MEAN_MOTION": 14.43242055, "ECCENTRICITY": 0.00333583, "INCLINATION": 98.8827, "RA_OF_ASC_NODE": 127.2642, "ARG_OF_PERICENTER": 212.8007, "MEAN_ANOMALY": 321.2298, "EPHEMERIS_TYPE": 0, "CLASSIFICATION_TYPE": "U", "NORAD_CAT_ID": 30925, "ELEMENT_SET_NO": 999, "REV_AT_EPOCH": 97193, "BSTAR": 0.0015493737, "MEAN_MOTION_DOT": 5.204e-05, "MEAN_MOTION_DDOT": 0}, "tle": {"line1": "1 30925U 99025AZP 25355.12671557  .00005204  00000+0  15494-2 0  9993", "line2": "2 30925  98.8827 127.2642 0033358 212.8007 321.2298 14.43242055971935"}}, "geometry": {"type": "Point", "coordinates": [-51.005983398607256, 7.780564676263036]}}, {"type": "Feature", "properties": {"norad_id": 30926, "name": "FENGYUN 1C DEB", "group": "fengyun-1c-debris", "lat": -5.740838427092511, "lon": -61.76144699194828, "alt_km": 488.2219959424265, "timestamp": "2025-12-21T14:40:48.196157+00:00", "meta": {"OBJECT_NAME": "FENGYUN 1C DEB", "OBJECT_ID": "1999-025AZQ", "EPOCH": "2025-12-20T19:21:29.391552", "MEAN_MOTION": 14.89457667, "ECCENTRICITY": 0.01649628, "INCLINATION": 98.8038, "RA_OF_ASC_NODE": 296.4503, "ARG_OF_PERICENTER": 355.9516, "MEAN_ANOMALY": 4.0352, "EPHEMERIS_TYPE": 0, "CLASSIFICATION_TYPE": "U", "NORAD_CAT_ID": 30926, "ELEMENT_SET_NO": 999, "REV_AT_EPOCH": 887, "BSTAR": 0.00041452085, "MEAN_MOTION_DOT": 5.016e-05, "MEAN_MOTION_DDOT": 0}, "tle": {"line1": "1 30926U 99025AZQ 25354.80659018  .00005016  00000+0  41452-3 0  9991", "line2": "2 30926  98.8038 296.4503 0164962 355.9516   4.0352 14.89457667  8873"}}, "geometry": {"type": "Point", "coordinates": [-61.76144699194828, -5.740838427092511]}}, {"type": "Feature", "properties": {"norad_id": 30927, "name": "FENGYUN 1C DEB", "group": "fengyun-1c-debris", "lat": 32.02437186783833, "lon": -117.94385995496285, "alt_km": 929.8732829775408, "timestamp": "2025-12-21T14:40:48.196168+00:00", "meta": {"OBJECT_NAME": "FENGYUN 1C DEB", "OBJECT_ID": "1999-025AZR", "EPOCH": "2025-12-17T21:21:43.568640", "MEAN_MOTION": 14.09007565, "ECCENTRICITY": 0.0098227, "INCLINATION": 99.1831, "RA_OF_ASC_NODE": 52.4581, "ARG_OF_PERICENTER": 351.3451, "MEAN_ANOMALY": 8.602, "EPHEMERIS_TYPE": 0, "CLASSIFICATION_TYPE": "U", "NORAD_CAT_ID": 30927, "ELEMENT_SET_NO": 999, "REV_AT_EPOCH": 95756, "BSTAR": 0.0014552608, "MEAN_MOTION_DOT": 2.589e-05, "MEAN_MOTION_DDOT": 0}, "tle": {"line1": "1 30927U 99025AZR 25351.89008760  .00002589  00000+0  14553-2 0  9993", "line2": "2 30927  99.1831  52.4581 0098227 351.3451   8.6020 14.09007565957564"}}, "geometry": {"type": "Point", "coordinates": [-117.94385995496285, 32.02437186783833]}}]}